QIANFAN-210             
1 69809U 26153K   26200.60059514 -.01917183  00000+0 -98214+0 0  9993
2 69809  88.9925 358.5414 0006954 190.0162 170.0890 14.19393556  2179
QIANFAN-211             
1 69810U 26153L   26200.59982508 -.01893711  00000+0 -97145+0 0  9993
2 69810  88.9923 358.5407 0005964 190.8396 169.2667 14.19275357  2178
QIANFAN-212             
1 69811U 26153M   26199.18924639 -.02018720  00000+0 -97540+0 0  9996
2 69811  88.9888 358.7049 0012200 152.0967 208.0882 14.22682297  1975
QIANFAN-213             
1 69812U 26153N   26198.90858230 -.02004805  00000+0 -98228+0 0  9992
2 69812  88.9917 358.7338 0007827 155.5754 204.5809 14.21939575  1930
QIANFAN-214             
1 69813U 26153P   26199.96087807  .00000060  00000+0  18792-4 0  9992
2 69813  88.9926 358.6122 0008141 171.0888 189.0452 14.26672643  2085
QIANFAN-215             
1 69814U 26153Q   26199.96081115  .00000127  00000+0  46376-4 0  9992
2 69814  88.9925 358.6119 0008354 173.3885 186.7420 14.26719080  2085
QIANFAN-216             
1 69815U 26153R   26200.31148107  .00000152  00000+0  56574-4 0  9999
2 69815  88.9926 358.5716 0008380 172.1459 187.9868 14.26720384  2136
QIANFAN-217             
1 69816U 26153S   26200.80190067  .00000053  00000+0  15677-4 0  9995
2 69816  88.9926 358.5145 0008145 167.4202 192.7197 14.26768230  2204
QIANFAN-218             
1 69817U 26153T   26200.87158036  .00000131  00000+0  47861-4 0  9990
2 69817  88.9929 358.5069 0007926 164.5769 195.5667 14.26811585  2211
CZ-6A R/B               
1 69818U 26153U   26200.86441053  .00000174  00000+0  35356-4 0  9997
2 69818  89.0169 358.4265 0086937  71.4166 289.6461 14.53449926  2250
STARLINK-37520          
1 69819U 26154A   26200.68348251  .00112476  00000+0  56500-3 0  9997
2 69819  53.1578 270.4587 0001264  66.1019 294.0136 15.80911513  3522
STARLINK-37553          
1 69820U 26154B   26200.61951291  .00116613  00000+0  58560-3 0  9991
2 69820  53.1574 270.7705 0001285  93.6324 266.4846 15.80902774  3511
STARLINK-37561          
1 69821U 26154C   26200.61876058  .00111285  00000+0  55916-3 0  9991
2 69821  53.1578 270.7648 0000961 112.8880 247.2245 15.80910339  3519
STARLINK-37521          
1 69822U 26154D   26200.61801215  .00162518  00000+0  80955-3 0  9991
2 69822  53.1574 270.7604 0000958  79.4764 280.6366 15.80926163  3510
STARLINK-37628          
1 69823U 26154E   26200.68048016  .00197723  00000+0  97920-3 0  9997
2 69823  53.1578 270.4385 0001064  72.2716 287.8423 15.80946689  3524
STARLINK-37695          
1 69824U 26154F   26200.83335647 -.00097800  00000+0 -49648-3 0  9995
2 69824  53.1586 269.5912 0000877  75.8719 114.3245 15.80920973  3414
STARLINK-37690          
1 69825U 26154G   26200.83335647 -.00085010  00000+0 -43054-3 0  9991
2 69825  53.1585 269.6555 0001043  81.3133  77.8731 15.80916157  3418
STARLINK-37710          
1 69826U 26154H   26200.83335647 -.00114649  00000+0 -58352-3 0  9990
2 69826  53.1585 269.6465 0000833  77.7753  85.6764 15.80930204  3414
STARLINK-38031          
1 69827U 26154J   26200.83335647 -.00055626  00000+0 -27949-3 0  9998
2 69827  53.1586 269.6375 0001011  84.9591  82.7420 15.80919659  3413
STARLINK-38001          
1 69828U 26154K   26200.83335647 -.00086623  00000+0 -43887-3 0  9999
2 69828  53.1587 269.6287 0001023  83.3783  88.6224 15.80915342  3418
STARLINK-37622          
1 69829U 26154L   26200.83335647 -.00091948  00000+0 -46626-3 0  9990
2 69829  53.1587 269.6200 0001038  80.7239  95.5472 15.80919847  3413
STARLINK-37621          
1 69830U 26154M   26200.83335647 -.00082807  00000+0 -41924-3 0  9992
2 69830  53.1587 269.6110 0000983  81.5841  98.9617 15.80913561  3416
STARLINK-37918          
1 69831U 26154N   26200.83335647 -.00096812  00000+0 -49131-3 0  9992
2 69831  53.1585 269.6022 0001060  76.8879 107.9244 15.80923303  3414
STARLINK-37887          
1 69832U 26154P   26200.83335647 -.00084095  00000+0 -42590-3 0  9995
2 69832  53.1586 269.5931 0000983  75.7994 113.2905 15.80912330  3415
STARLINK-37624          
1 69833U 26154Q   26200.83335647 -.00086109  00000+0 -43623-3 0  9992
2 69833  53.1585 269.5842 0001097  78.8807 114.4800 15.80914839  3413
STARLINK-37769          
1 69834U 26154R   26200.83335647 -.00101186  00000+0 -51394-3 0  9990
2 69834  53.1585 269.5753 0001030  78.3916 119.2376 15.80922981  3416
STARLINK-37247          
1 69835U 26154S   26200.83335647 -.00088989  00000+0 -45105-3 0  9999
2 69835  53.1584 269.5666 0001016  76.3975 125.5048 15.80916993  3519
STARLINK-37569          
1 69836U 26154T   26200.83335647 -.00094411  00000+0 -47895-3 0  9995
2 69836  53.1584 269.5580 0000992  75.6319 130.5403 15.80921644  3410
STARLINK-37587          
1 69837U 26154U   26200.83335647 -.00097353  00000+0 -49415-3 0  9994
2 69837  53.1583 269.5487 0001034  77.9051 132.5378 15.80921575  3384
STARLINK-37590          
1 69838U 26154V   26200.83335647 -.00093680  00000+0 -47523-3 0  9992
2 69838  53.1582 269.5400 0001052  72.9456 141.7711 15.80918934  3257
