OBJECT_NAME,OBJECT_ID,EPOCH,MEAN_MOTION,ECCENTRICITY,INCLINATION,RA_OF_ASC_NODE,ARG_OF_PERICENTER,MEAN_ANOMALY,EPHEMERIS_TYPE,CLASSIFICATION_TYPE,NORAD_CAT_ID,ELEMENT_SET_NO,REV_AT_EPOCH,BSTAR,MEAN_MOTION_DOT,MEAN_MOTION_DDOT
QIANFAN-210,2026-153K,2026-07-19T14:24:51.420096,14.19393556,.0006954,88.9925,358.5414,190.0162,170.0890,0,U,69809,999,217,-.98214E+0,-.1917183E-1,0
QIANFAN-211,2026-153L,2026-07-19T14:23:44.886912,14.19275357,.0005964,88.9923,358.5407,190.8396,169.2667,0,U,69810,999,217,-.97145E+0,-.1893711E-1,0
QIANFAN-212,2026-153M,2026-07-18T04:32:30.888096,14.22682297,.00122001,88.9888,358.7049,152.0967,208.0882,0,U,69811,999,197,-.97540315E+0,-.201872E-1,0
QIANFAN-213,2026-153N,2026-07-17T21:48:21.510720,14.21939575,.00078274,88.9917,358.7338,155.5754,204.5809,0,U,69812,999,193,-.9822754E+0,-.2004805E-1,0
QIANFAN-214,2026-153P,2026-07-18T23:03:39.865248,14.26672643,.0008141,88.9926,358.6122,171.0888,189.0452,0,U,69813,999,208,.18792264E-4,.6E-6,0
QIANFAN-215,2026-153Q,2026-07-18T23:03:34.083360,14.26719080,.00083545,88.9925,358.6119,173.3885,186.7420,0,U,69814,999,208,.4637606E-4,.127E-5,0
QIANFAN-216,2026-153R,2026-07-19T07:28:31.964448,14.26720384,.00083806,88.9926,358.5716,172.1459,187.9868,0,U,69815,999,213,.56574274E-4,.152E-5,0
QIANFAN-217,2026-153S,2026-07-19T19:14:44.217888,14.26768230,.0008145,88.9926,358.5145,167.4202,192.7197,0,U,69816,999,220,.15677E-4,.53E-6,0
QIANFAN-218,2026-153T,2026-07-19T20:55:04.543104,14.26811585,.0007926,88.9929,358.5069,164.5769,195.5667,0,U,69817,999,221,.47861E-4,.131E-5,0
CZ-6A R/B,2026-153U,2026-07-19T20:44:45.069792,14.53449926,.0086937,89.0169,358.4265,71.4166,289.6461,0,U,69818,999,225,.35356E-4,.174E-5,0
STARLINK-37520,2026-154A,2026-07-19T16:24:12.888864,15.80911513,.0001264,53.1578,270.4587,66.1019,294.0136,0,U,69819,999,352,.565E-3,.112476E-2,0
STARLINK-37553,2026-154B,2026-07-19T14:52:05.915424,15.80902774,.0001285,53.1574,270.7705,93.6324,266.4846,0,U,69820,999,351,.5856E-3,.116613E-2,0
STARLINK-37561,2026-154C,2026-07-19T14:51:00.914112,15.80910339,.0000961,53.1578,270.7648,112.8880,247.2245,0,U,69821,999,351,.55916E-3,.111285E-2,0
STARLINK-37521,2026-154D,2026-07-19T14:49:56.249760,15.80926163,.0000958,53.1574,270.7604,79.4764,280.6366,0,U,69822,999,351,.80955E-3,.162518E-2,0
STARLINK-37628,2026-154E,2026-07-19T16:19:53.485824,15.80946689,.0001064,53.1578,270.4385,72.2716,287.8423,0,U,69823,999,352,.9792E-3,.197723E-2,0
STARLINK-37695,2026-154F,2026-07-19T20:00:01.999008,15.80920973,.0000877,53.1586,269.5912,75.8719,114.3245,0,U,69824,999,341,-.49648E-3,-.978E-3,0
STARLINK-37690,2026-154G,2026-07-19T20:00:01.999008,15.80916157,.0001043,53.1585,269.6555,81.3133,77.8731,0,U,69825,999,341,-.43054E-3,-.8501E-3,0
STARLINK-37710,2026-154H,2026-07-19T20:00:01.999008,15.80930204,.0000833,53.1585,269.6465,77.7753,85.6764,0,U,69826,999,341,-.58352E-3,-.114649E-2,0
STARLINK-38031,2026-154J,2026-07-19T20:00:01.999008,15.80919659,.0001011,53.1586,269.6375,84.9591,82.7420,0,U,69827,999,341,-.27949E-3,-.55626E-3,0
STARLINK-38001,2026-154K,2026-07-19T20:00:01.999008,15.80915342,.0001023,53.1587,269.6287,83.3783,88.6224,0,U,69828,999,341,-.43887E-3,-.86623E-3,0
STARLINK-37622,2026-154L,2026-07-19T20:00:01.999008,15.80919847,.0001038,53.1587,269.6200,80.7239,95.5472,0,U,69829,999,341,-.46626E-3,-.91948E-3,0
STARLINK-37621,2026-154M,2026-07-19T20:00:01.999008,15.80913561,.0000983,53.1587,269.6110,81.5841,98.9617,0,U,69830,999,341,-.41924E-3,-.82807E-3,0
STARLINK-37918,2026-154N,2026-07-19T20:00:01.999008,15.80923303,.000106,53.1585,269.6022,76.8879,107.9244,0,U,69831,999,341,-.49131E-3,-.96812E-3,0
STARLINK-37887,2026-154P,2026-07-19T20:00:01.999008,15.80912330,.0000983,53.1586,269.5931,75.7994,113.2905,0,U,69832,999,341,-.4259E-3,-.84095E-3,0
STARLINK-37624,2026-154Q,2026-07-19T20:00:01.999008,15.80914839,.0001097,53.1585,269.5842,78.8807,114.4800,0,U,69833,999,341,-.43623E-3,-.86109E-3,0
STARLINK-37769,2026-154R,2026-07-19T20:00:01.999008,15.80922981,.000103,53.1585,269.5753,78.3916,119.2376,0,U,69834,999,341,-.51394E-3,-.101186E-2,0
STARLINK-37247,2026-154S,2026-07-19T20:00:01.999008,15.80916993,.0001016,53.1584,269.5666,76.3975,125.5048,0,U,69835,999,351,-.45105E-3,-.88989E-3,0
STARLINK-37569,2026-154T,2026-07-19T20:00:01.999008,15.80921644,.0000992,53.1584,269.5580,75.6319,130.5403,0,U,69836,999,341,-.47895E-3,-.94411E-3,0
STARLINK-37587,2026-154U,2026-07-19T20:00:01.999008,15.80921575,.0001034,53.1583,269.5487,77.9051,132.5378,0,U,69837,999,338,-.49415E-3,-.97353E-3,0
STARLINK-37590,2026-154V,2026-07-19T20:00:01.999008,15.80918934,.0001052,53.1582,269.5400,72.9456,141.7711,0,U,69838,999,325,-.47523E-3,-.9368E-3,0
